STARLINK-34923          
1 65247U 25179N   26169.10624377  .00004106  00000+0  28830-3 0  9996
2 65247  97.3455 210.8683 0002327 106.4416 253.7067 15.05660962 46979
STARLINK-34962          
1 65248U 25179P   26169.07857111  .00005165  00000+0  36146-3 0  9992
2 65248  97.3472 210.9036 0001580 132.8920 227.2440 15.05669969 46938
STARLINK-34925          
1 65249U 25179Q   26169.12564787 -.00003128  00000+0 -21301-3 0  9999
2 65249  97.3472 211.0008 0001417  61.8247 298.3123 15.05636546 46934
STARLINK-34973          
1 65250U 25179R   26169.11734775 -.00011614  00000+0 -80303-3 0  9992
2 65250  97.3470 211.0088 0001382  41.4834 318.6498 15.05616111 46925
STARLINK-34989          
1 65251U 25179S   26169.12009752  .00003209  00000+0  22619-3 0  9999
2 65251  97.3432 211.0025 0001328 114.1025 246.0342 15.05658586 47100
STARLINK-34961          
1 65252U 25179T   26169.07301868  .00004421  00000+0  31007-3 0  9995
2 65252  97.3479 210.9113 0002102 127.5192 232.6226 15.05661129 46931
STARLINK-34933          
1 65253U 25179U   26169.09793849  .00002856  00000+0  20177-3 0  9998
2 65253  97.3477 210.8759 0002306  91.6150 268.5342 15.05661232 46927
STARLINK-34979          
1 65254U 25179V   26169.10348702  .00005469  00000+0  38265-3 0  9995
2 65254  97.3469 210.8687 0001530 126.8517 233.2851 15.05658603 46927
STARLINK-34987          
1 65255U 25179W   26169.09240068  .00001925  00000+0  13731-3 0  9994
2 65255  97.3456 210.8869 0001416  85.1428 274.9961 15.05656106 46916
STARLINK-34971          
1 65256U 25179X   26169.13393724  .00003271  00000+0  23050-3 0  9999
2 65256  97.3441 210.9835 0001444 116.9848 243.1528 15.05656276 46662
STARLINK-34966          
1 65257U 25179Y   26169.12840187  .00002120  00000+0  15081-3 0  9996
2 65257  97.3446 210.9914 0000838 129.3826 230.7476 15.05656961 47044
STARLINK-34980          
1 65258U 25179Z   26169.08134154  .00004639  00000+0  32511-3 0  9996
2 65258  97.3482 210.8992 0001706 128.7938 231.3442 15.05666353 46924
STARLINK-34922          
1 65273U 25184A   26169.11373552  .00003084  00000+0  21756-3 0  9992
2 65273  97.3463 220.6658 0001078 110.7692 249.3651 15.05657126 46411
STARLINK-34904          
1 65274U 25184B   26169.14141990  .00000341  00000+0  27602-4 0  9995
2 65274  97.3453 220.6300 0001268  80.1471 279.9900 15.05655117 46415
STARLINK-34954          
1 65275U 25184C   26169.16080097  .00001396  00000+0  10065-3 0  9993
2 65275  97.3461 220.6006 0003255 150.5506 209.5906 15.05670767 46410
STARLINK-34968          
1 65276U 25184D   26169.12757134 -.00004295  00000+0 -29385-3 0  9991
2 65276  97.3448 220.6490 0002851  74.0260 286.1281 15.05656125 46410
STARLINK-34935          
1 65277U 25184E   26169.10543340  .00004905  00000+0  34362-3 0  9999
2 65277  97.3492 220.6783 0001928  84.4569 275.6878 15.05659403 46413
STARLINK-35000          
1 65278U 25184F   26169.08326656  .00004558  00000+0  31966-3 0  9997
2 65278  97.3479 220.5533 0001749 132.2640 227.8736 15.05653441 46401
STARLINK-35023          
1 65279U 25184G   26169.13588908  .00003758  00000+0  26425-3 0  9999
2 65279  97.3431 220.6365 0001975  86.9853 273.1601 15.05654386 46411
STARLINK-35001          
1 65280U 25184H   26169.11926874 -.00002768  00000+0 -18794-3 0  9999
2 65280  97.3444 220.6581 0001897 102.5747 257.5693 15.05651731 46415
STARLINK-35010          
1 65281U 25184J   26169.11097030  .00000142  00000+0  13822-4 0  9993
2 65281  97.3490 220.6685 0001004 107.4025 252.7313 15.05649296 46414
STARLINK-35021          
1 65282U 25184K   26169.09989374  .00005536  00000+0  38707-3 0  9992
2 65282  97.3514 220.6863 0002384 109.8037 250.3448 15.05678855 46361
STARLINK-35015          
1 65283U 25184L   26169.08880770 -.00000373  00000+0 -21890-4 0  9994
2 65283  97.3509 220.5479 0000327  95.0113 265.1152 15.05658956 46405
STARLINK-35006          
1 65284U 25184M   26169.12480569  .00003218  00000+0  22687-3 0  9995
2 65284  97.3456 220.6483 0001855  83.4606 276.6832 15.05649203 46416
STARLINK-34995          
1 65285U 25184N   26169.13865408  .00003929  00000+0  27603-3 0  9998
2 65285  97.3431 220.6318 0002038 109.8422 250.3026 15.05661377 46410
STARLINK-35048          
1 65286U 25184P   26169.13034953  .00002752  00000+0  19457-3 0  9993
2 65286  97.3450 220.6424 0002115  98.4047 261.7420 15.05659328 46363
STARLINK-35007          
1 65287U 25184Q   26169.08050054  .00004076  00000+0  28621-3 0  9992
2 65287  97.3460 220.5588 0001563  95.0520 265.0886 15.05662817 46348
STARLINK-35018          
1 65288U 25184R   26169.11650685  .00005609  00000+0  39229-3 0  9992
2 65288  97.3450 220.6619 0001926  97.8765 262.2681 15.05659806 46412
STARLINK-34845          
1 65289U 25184S   26169.10821175  .00004547  00000+0  31874-3 0  9994
2 65289  97.3485 220.6724 0001562  92.7490 267.3916 15.05670175 46412
STARLINK-34984          
1 65290U 25184T   26169.12204259  .00003852  00000+0  27069-3 0  9995
2 65290  97.3452 220.6537 0001903  87.3101 272.8344 15.05661937 46410
