OBJECT_NAME,OBJECT_ID,EPOCH,MEAN_MOTION,ECCENTRICITY,INCLINATION,RA_OF_ASC_NODE,ARG_OF_PERICENTER,MEAN_ANOMALY,EPHEMERIS_TYPE,CLASSIFICATION_TYPE,NORAD_CAT_ID,ELEMENT_SET_NO,REV_AT_EPOCH,BSTAR,MEAN_MOTION_DOT,MEAN_MOTION_DDOT
STARLINK-34923,2025-179N,2026-06-18T02:32:59.461728,15.05660962,.00023276,97.3455,210.8683,106.4416,253.7067,0,U,65247,999,4697,.28829919E-3,.4106E-4,0
STARLINK-34962,2025-179P,2026-06-18T01:53:08.543904,15.05669969,.00015805,97.3472,210.9036,132.8920,227.2440,0,U,65248,999,4693,.36145565E-3,.5165E-4,0
STARLINK-34925,2025-179Q,2026-06-18T03:00:55.975968,15.05636546,.00014178,97.3472,211.0008,61.8247,298.3123,0,U,65249,999,4693,-.2130117E-3,-.3128E-4,0
STARLINK-34973,2025-179R,2026-06-18T02:48:58.845600,15.05616111,.00013821,97.3470,211.0088,41.4834,318.6498,0,U,65250,999,4692,-.80302871E-3,-.11614E-3,0
STARLINK-34989,2025-179S,2026-06-18T02:52:56.425728,15.05658586,.00013286,97.3432,211.0025,114.1025,246.0342,0,U,65251,999,4710,.22618769E-3,.3209E-4,0
STARLINK-34961,2025-179T,2026-06-18T01:45:08.813952,15.05661129,.00021022,97.3479,210.9113,127.5192,232.6226,0,U,65252,999,4693,.31007226E-3,.4421E-4,0
STARLINK-34933,2025-179U,2026-06-18T02:21:01.885536,15.05661232,.00023069,97.3477,210.8759,91.6150,268.5342,0,U,65253,999,4692,.20176653E-3,.2856E-4,0
STARLINK-34979,2025-179V,2026-06-18T02:29:01.278528,15.05658603,.00015308,97.3469,210.8687,126.8517,233.2851,0,U,65254,999,4692,.38264713E-3,.5469E-4,0
STARLINK-34987,2025-179W,2026-06-18T02:13:03.418752,15.05656106,.00014161,97.3456,210.8869,85.1428,274.9961,0,U,65255,999,4691,.13731423E-3,.1925E-4,0
STARLINK-34971,2025-179X,2026-06-18T03:12:52.177536,15.05656276,.00014444,97.3441,210.9835,116.9848,243.1528,0,U,65256,999,4666,.23049704E-3,.3271E-4,0
STARLINK-34966,2025-179Y,2026-06-18T03:04:53.921568,15.05656961,.0000838,97.3446,210.9914,129.3826,230.7476,0,U,65257,999,4704,.15080566E-3,.212E-4,0
STARLINK-34980,2025-179Z,2026-06-18T01:57:07.909056,15.05666353,.0001706,97.3482,210.8992,128.7938,231.3442,0,U,65258,999,4692,.32511095E-3,.4639E-4,0
STARLINK-34922,2025-184A,2026-06-18T02:43:46.748928,15.05657126,.00010787,97.3463,220.6658,110.7692,249.3651,0,U,65273,999,4641,.21756438E-3,.3084E-4,0
STARLINK-34904,2025-184B,2026-06-18T03:23:38.679360,15.05655117,.00012684,97.3453,220.6300,80.1471,279.9900,0,U,65274,999,4641,.27601627E-4,.341E-5,0
STARLINK-34954,2025-184C,2026-06-18T03:51:33.203808,15.05670767,.00032555,97.3461,220.6006,150.5506,209.5906,0,U,65275,999,4641,.10065396E-3,.1396E-4,0
STARLINK-34968,2025-184D,2026-06-18T03:03:42.163776,15.05656125,.00028513,97.3448,220.6490,74.0260,286.1281,0,U,65276,999,4641,-.29384502E-3,-.4295E-4,0
STARLINK-34935,2025-184E,2026-06-18T02:31:49.445760,15.05659403,.00019282,97.3492,220.6783,84.4569,275.6878,0,U,65277,999,4641,.343618E-3,.4905E-4,0
STARLINK-35000,2025-184F,2026-06-18T01:59:54.230784,15.05653441,.00017494,97.3479,220.5533,132.2640,227.8736,0,U,65278,999,4640,.31966202E-3,.4558E-4,0
STARLINK-35023,2025-184G,2026-06-18T03:15:40.816512,15.05654386,.00019754,97.3431,220.6365,86.9853,273.1601,0,U,65279,999,4641,.26424779E-3,.3758E-4,0
STARLINK-35001,2025-184H,2026-06-18T02:51:44.819136,15.05651731,.00018979,97.3444,220.6581,102.5747,257.5693,0,U,65280,999,4641,-.18793533E-3,-.2768E-4,0
STARLINK-35010,2025-184J,2026-06-18T02:39:47.833920,15.05649296,.00010046,97.3490,220.6685,107.4025,252.7313,0,U,65281,999,4641,.13822077E-4,.142E-5,0
STARLINK-35021,2025-184K,2026-06-18T02:23:50.819136,15.05678855,.0002384,97.3514,220.6863,109.8037,250.3448,0,U,65282,999,4636,.38707348E-3,.5536E-4,0
STARLINK-35015,2025-184L,2026-06-18T02:07:52.985280,15.05658956,.00003277,97.3509,220.5479,95.0113,265.1152,0,U,65283,999,4640,-.21889561E-4,-.373E-5,0
STARLINK-35006,2025-184M,2026-06-18T02:59:43.211616,15.05649203,.00018553,97.3456,220.6483,83.4606,276.6832,0,U,65284,999,4641,.22687325E-3,.3218E-4,0
STARLINK-34995,2025-184N,2026-06-18T03:19:39.712512,15.05661377,.00020389,97.3431,220.6318,109.8422,250.3026,0,U,65285,999,4641,.27602585E-3,.3929E-4,0
STARLINK-35048,2025-184P,2026-06-18T03:07:42.199392,15.05659328,.0002115,97.3450,220.6424,98.4047,261.7420,0,U,65286,999,4636,.19456564E-3,.2752E-4,0
STARLINK-35007,2025-184Q,2026-06-18T01:55:55.246656,15.05662817,.00015639,97.3460,220.5588,95.0520,265.0886,0,U,65287,999,4634,.28621369E-3,.4076E-4,0
STARLINK-35018,2025-184R,2026-06-18T02:47:46.191840,15.05659806,.0001926,97.3450,220.6619,97.8765,262.2681,0,U,65288,999,4641,.39228987E-3,.5609E-4,0
STARLINK-34845,2025-184S,2026-06-18T02:35:49.495200,15.05670175,.00015621,97.3485,220.6724,92.7490,267.3916,0,U,65289,999,4641,.31873952E-3,.4547E-4,0
STARLINK-34984,2025-184T,2026-06-18T02:55:44.479776,15.05661937,.00019031,97.3452,220.6537,87.3101,272.8344,0,U,65290,999,4641,.27069206E-3,.3852E-4,0
